CRE (WAAS/PRN 138)      
1 28868U 05036A   22352.45904670 -.00000047  00000+0  00000+0 0  9995
2 28868   1.0255  91.9164 0000617 205.1493 207.9517  1.00271812 33655
IOR-W (EGNOS/PRN 126)   
1 28899U 05044A   22352.22966163  .00000034  00000+0  00000+0 0  9993
2 28899   3.6467  38.9481 0002858 236.4040 318.0371  1.00272166 62713
QZS-1 (QZSS/PRN 183)    
1 37158U 10045A   22352.26470785 -.00000072  00000+0  00000+0 0  9995
2 37158  42.5323 130.8567 0755021 270.4096 278.0465  1.00261391 44938
GSAT-8 (GAGAN/PRN 127)  
1 37605U 11022A   22352.46518723  .00000111  00000+0  00000+0 0  9998
2 37605   0.0377 112.2983 0008554 152.1892  45.1357  1.00272086 40416
LUCH 5A (SDCM/PRN 140)  
1 37951U 11074B   22352.60216365 -.00000023  00000+0  00000+0 0  9995
2 37951   5.4808  94.2342 0002792 149.0683 227.5132  1.00273071 40396
SES-5 (EGNOS/PRN 136)   
1 38652U 12036A   22352.23313435  .00000061  00000+0  00000+0 0  9999
2 38652   0.0565 297.0086 0002057 328.0485 270.6875  1.00271214 31689
GSAT-10 (GAGAN/PRN 128) 
1 38779U 12051B   22352.54840853 -.00000138  00000+0  00000+0 0  9995
2 38779   0.0586 103.3849 0004562 165.0659  99.1707  1.00270919 37318
LUCH 5B (SDCM/PRN 125)  
1 38977U 12061A   22352.45097935 -.00000113  00000+0  00000+0 0  9994
2 38977   7.6900  61.2158 0002960 150.7223  21.1212  1.00271532 37378
ASTRA 5B (EGNOS/PRN 123)
1 39617U 14011B   22352.46039316  .00000182  00000+0  00000+0 0  9998
2 39617   0.0376 337.3294 0003451 274.4294  32.5348  1.00272852 31860
LUCH 5V (SDCM/PRN 141)  
1 39727U 14023A   22352.54365744 -.00000242  00000+0  00000+0 0  9997
2 39727   1.9401  77.0587 0003119 212.7345  87.8062  1.00269136549701
GSAT-15 (GAGAN/PRN 139) 
1 41028U 15065A   22352.54285425 -.00000231  00000+0  00000+0 0  9996
2 41028   0.0339 273.8179 0002077 315.2209 147.0375  1.00270682 26064
E 117 W B (WAAS/PRN 131)
1 41589U 16038B   22351.92877193  .00000016  00000+0  00000+0 0  9999
2 41589   0.0119 160.1986 0000424  15.1086 128.5688  1.00267720 23864
SES-15 (WAAS/PRN 133)   
1 42709U 17026A   22352.31415199  .00000087  00000+0  00000+0 0  9998
2 42709   0.0177 357.4876 0000204 288.0757 145.2958  1.00268069 21337
QZS-2 (QZSS/PRN 184)    
1 42738U 17028A   22351.61958125 -.00000158  00000+0  00000+0 0  9995
2 42738  41.4690 261.5752 0759079 269.4382 278.6780  1.00285862 20337
QZS-3 (QZSS/PRN 189)    
1 42917U 17048A   22352.47956944 -.00000321  00000+0  00000+0 0  9990
2 42917   0.0712 222.7255 0002394  56.2053 107.8129  1.00273898 19566
QZS-4 (QZSS/PRN 185)    
1 42965U 17062A   22351.90605075 -.00000304  00000+0  00000+0 0  9993
2 42965  40.7224 359.7656 0750852 271.5211 277.8824  1.00255456 19000
GALAXY 30 (WAAS/PRN 135)
1 46114U 20056C   22352.50109919  .00000064  00000+0  00000+0 0  9995
2 46114   0.0017 358.7906 0001973 270.0364 233.6813  1.00272633  8600
